{
  "type": "FeatureCollection",
  "features": [
    {
      "type": "Feature",
      "geometry": {
        "bbox": [
          -92.39939497885413,
          35.77770469201377,
          -89.71983511816059,
          37.510700004801826
        ],
        "type": "Polygon",
        "coordinates": [
          [
            [
              -92.39939497885413,
              35.77770469201377
            ],
            [
              -92.39939497885413,
              37.510700004801826
            ],
            [
              -89.71983511816059,
              37.510700004801826
            ],
            [
              -89.71983511816059,
              35.77770469201377
            ],
            [
              -92.39939497885413,
              35.77770469201377
            ]
          ]
        ]
      },
      "properties": {
        "id": 1
      }
    }
  ]
}